[
    {
        "CCSDS_OMM_VERS": "3.0",
        "COMMENT": "GENERATED VIA SPACE-TRACK.ORG API",
        "CREATION_DATE": "2025-04-13T03:46:00",
        "ORIGINATOR": "18 SPCS",
        "OBJECT_NAME": "COSMOS 2477 (GLONASS)",
        "OBJECT_ID": "2011-064B",
        "CENTER_NAME": "EARTH",
        "REF_FRAME": "TEME",
        "TIME_SYSTEM": "UTC",
        "MEAN_ELEMENT_THEORY": "SGP4",
        "EPOCH": "2025-04-12T17:12:12.316608",
        "MEAN_MOTION": "2.13103085",
        "ECCENTRICITY": "0.00216180",
        "INCLINATION": "65.0382",
        "RA_OF_ASC_NODE": "87.5057",
        "ARG_OF_PERICENTER": "243.8591",
        "MEAN_ANOMALY": "338.3195",
        "EPHEMERIS_TYPE": "0",
        "CLASSIFICATION_TYPE": "U",
        "NORAD_CAT_ID": "37868",
        "ELEMENT_SET_NO": "999",
        "REV_AT_EPOCH": "10458",
        "BSTAR": "0.00000000000000",
        "MEAN_MOTION_DOT": "0.00000023",
        "MEAN_MOTION_DDOT": "0.0000000000000",
        "SEMIMAJOR_AXIS": "25507.938",
        "PERIOD": "675.729",
        "APOAPSIS": "19184.946",
        "PERIAPSIS": "19074.660",
        "OBJECT_TYPE": "PAYLOAD",
        "RCS_SIZE": "LARGE",
        "COUNTRY_CODE": "CIS",
        "LAUNCH_DATE": "2011-11-04",
        "SITE": "TTMTR",
        "DECAY_DATE": null,
        "FILE": "4700252",
        "GP_ID": "285480686",
        "TLE_LINE0": "0 COSMOS 2477 (GLONASS)",
        "TLE_LINE1": "1 37868U 11064B   25102.71680922  .00000023  00000-0  00000-0 0  9994",
        "TLE_LINE2": "2 37868  65.0382  87.5057 0021618 243.8591 338.3195  2.13103085104583"
    }
]